STARLINK-2140_new
1 17730C 21017J   21326.12914822  .00006283  00000-0  42106-3 0  3264
2 17730  53.0554  58.1685 0001322  75.7007 152.5444 15.06387257    12
STARLINK-2140_old
1 27730C 21017J   21325.15072470  .00005855  00000-0  39221-3 0  3257
2 27730  53.0554  62.5605 0001265  74.7739 244.4684 15.06403765    10
